start=new Date('2021-11-12T00:00:00.000Z').valueOf();
sats=[{"LAUNCH_DATE":"2021-05-15","CLASSIFICATION_TYPE":"U","FILE":"3212203","NORAD_CAT_ID":"48562","MEAN_ANOMALY":"309.1007","EPHEMERIS_TYPE":"0","OBJECT_ID":"2021-041K","GP_ID":"189499227","TLE_LINE1":"1 48562U 21041K   21315.55963008 -.00004007  00000-0 -25012-3 0  9997","OBJECT_TYPE":"PAYLOAD","TLE_LINE2":"2 48562  53.0568  20.6138 0001393  51.0106 309.1007 15.06417703 27590","PERIAPSIS":"546.195","MEAN_ELEMENT_THEORY":"SGP4","BSTAR":"-0.00025012000000","COUNTRY_CODE":"US","EPOCH":"2021-11-11T13:25:52.038912","RCS_SIZE":"LARGE","INCLINATION":"53.0568","TIME_SYSTEM":"UTC","PERIOD":"95.591","REV_AT_EPOCH":"2759","APOAPSIS":"548.124","ELEMENT_SET_NO":"999","SEMIMAJOR_AXIS":"6925.294","RA_OF_ASC_NODE":"20.6138","SITE":"AFETR","REF_FRAME":"TEME","MEAN_MOTION":"15.06417703","MEAN_MOTION_DDOT":"0.0000000000000","ARG_OF_PERICENTER":"51.0106","DECAY_DATE":null,"OBJECT_NAME":"STARLINK-2187","ECCENTRICITY":"0.00013930","CENTER_NAME":"EARTH","MEAN_MOTION_DOT":"-0.00004007"},{"MEAN_MOTION_DDOT":"0.0000000000000","ARG_OF_PERICENTER":"69.5726","MEAN_MOTION":"15.06405030","REF_FRAME":"TEME","RA_OF_ASC_NODE":"20.2377","SITE":"AFETR","DECAY_DATE":null,"OBJECT_NAME":"STARLINK-2188","ECCENTRICITY":"0.00013780","MEAN_MOTION_DOT":"-0.00000229","CENTER_NAME":"EARTH","RCS_SIZE":"LARGE","EPOCH":"2021-11-11T15:27:57.437856","INCLINATION":"53.0549","TIME_SYSTEM":"UTC","PERIOD":"95.592","ELEMENT_SET_NO":"999","SEMIMAJOR_AXIS":"6925.333","REV_AT_EPOCH":"2720","APOAPSIS":"548.152","TLE_LINE1":"1 48563U 21041L   21315.64441479 -.00000229  00000-0  35169-5 0  9998","GP_ID":"189528443","OBJECT_TYPE":"PAYLOAD","MEAN_ELEMENT_THEORY":"SGP4","BSTAR":"0.00000351690000","PERIAPSIS":"546.244","TLE_LINE2":"2 48563  53.0549  20.2377 0001378  69.5726 290.5411 15.06405030 27206","COUNTRY_CODE":"US","LAUNCH_DATE":"2021-05-15","NORAD_CAT_ID":"48563","MEAN_ANOMALY":"290.5411","FILE":"3212485","CLASSIFICATION_TYPE":"U","OBJECT_ID":"2021-041L","EPHEMERIS_TYPE":"0"},{"APOAPSIS":"548.115","REV_AT_EPOCH":"2718","SEMIMAJOR_AXIS":"6925.336","ELEMENT_SET_NO":"999","PERIOD":"95.592","INCLINATION":"53.0576","TIME_SYSTEM":"UTC","EPOCH":"2021-11-11T12:06:15.331968","RCS_SIZE":"LARGE","MEAN_MOTION_DOT":"-0.00001449","CENTER_NAME":"EARTH","DECAY_DATE":null,"OBJECT_NAME":"STARLINK-2190","ECCENTRICITY":"0.00013210","MEAN_MOTION":"15.06404216","REF_FRAME":"TEME","ARG_OF_PERICENTER":"74.5214","MEAN_MOTION_DDOT":"0.0000000000000","SITE":"AFETR","RA_OF_ASC_NODE":"20.8606","OBJECT_ID":"2021-041M","EPHEMERIS_TYPE":"0","FILE":"3212088","MEAN_ANOMALY":"285.5921","NORAD_CAT_ID":"48564","CLASSIFICATION_TYPE":"U","LAUNCH_DATE":"2021-05-15","COUNTRY_CODE":"US","BSTAR":"-0.00007842000000","MEAN_ELEMENT_THEORY":"SGP4","TLE_LINE2":"2 48564  53.0576  20.8606 0001321  74.5214 285.5921 15.06404216 27186","PERIAPSIS":"546.286","OBJECT_TYPE":"PAYLOAD","GP_ID":"189495306","TLE_LINE1":"1 48564U 21041M   21315.50434412 -.00001449  00000-0 -78420-4 0  9995"},{"GP_ID":"189527976","TLE_LINE1":"1 48565U 21041N   21315.69969341 -.00001322  00000-0 -69837-4 0  9992","OBJECT_TYPE":"PAYLOAD","TLE_LINE2":"2 48565  53.0570  19.9867 0001196  80.4186 279.6938 15.06405256 27214","PERIAPSIS":"546.369","BSTAR":"-0.00006983700000","MEAN_ELEMENT_THEORY":"SGP4","COUNTRY_CODE":"US","LAUNCH_DATE":"2021-05-15","CLASSIFICATION_TYPE":"U","FILE":"3212485","NORAD_CAT_ID":"48565","MEAN_ANOMALY":"279.6938","EPHEMERIS_TYPE":"0","OBJECT_ID":"2021-041N","RA_OF_ASC_NODE":"19.9867","SITE":"AFETR","MEAN_MOTION":"15.06405256","REF_FRAME":"TEME","MEAN_MOTION_DDOT":"0.0000000000000","ARG_OF_PERICENTER":"80.4186","DECAY_DATE":null,"OBJECT_NAME":"STARLINK-2191","ECCENTRICITY":"0.00011960","CENTER_NAME":"EARTH","MEAN_MOTION_DOT":"-0.00001322","EPOCH":"2021-11-11T16:47:33.510624","RCS_SIZE":"LARGE","INCLINATION":"53.0570","TIME_SYSTEM":"UTC","PERIOD":"95.592","REV_AT_EPOCH":"2721","APOAPSIS":"548.026","ELEMENT_SET_NO":"999","SEMIMAJOR_AXIS":"6925.332"},{"FILE":"3212485","NORAD_CAT_ID":"48566","MEAN_ANOMALY":"289.5445","CLASSIFICATION_TYPE":"U","OBJECT_ID":"2021-041P","EPHEMERIS_TYPE":"0","LAUNCH_DATE":"2021-05-15","MEAN_ELEMENT_THEORY":"SGP4","BSTAR":"-0.00005006700000","TLE_LINE2":"2 48566  53.0573  29.8716 0001526  70.5709 289.5445 15.06401057 27071","PERIAPSIS":"546.154","COUNTRY_CODE":"US","GP_ID":"189528795","TLE_LINE1":"1 48566U 21041P   21315.72363217 -.00001027  00000-0 -50067-4 0  9994","OBJECT_TYPE":"PAYLOAD","PERIOD":"95.592","REV_AT_EPOCH":"2707","APOAPSIS":"548.267","ELEMENT_SET_NO":"999","SEMIMAJOR_AXIS":"6925.345","EPOCH":"2021-11-11T17:22:01.819488","RCS_SIZE":"LARGE","INCLINATION":"53.0573","TIME_SYSTEM":"UTC","MEAN_MOTION_DOT":"-0.00001027","CENTER_NAME":"EARTH","REF_FRAME":"TEME","MEAN_MOTION":"15.06401057","ARG_OF_PERICENTER":"70.5709","MEAN_MOTION_DDOT":"0.0000000000000","RA_OF_ASC_NODE":"29.8716","SITE":"AFETR","ECCENTRICITY":"0.00015260","DECAY_DATE":null,"OBJECT_NAME":"STARLINK-2214"},{"EPHEMERIS_TYPE":"0","OBJECT_ID":"2021-041Q","CLASSIFICATION_TYPE":"U","FILE":"3212088","NORAD_CAT_ID":"48567","MEAN_ANOMALY":"283.8188","LAUNCH_DATE":"2021-05-15","COUNTRY_CODE":"US","TLE_LINE2":"2 48567  53.0557  30.7036 0001416  76.2958 283.8188 15.06405738 27045","PERIAPSIS":"546.215","BSTAR":"0.00003015400000","MEAN_ELEMENT_THEORY":"SGP4","OBJECT_TYPE":"PAYLOAD","GP_ID":"189495423","TLE_LINE1":"1 48567U 21041Q   21315.53659984  .00000168  00000-0  30154-4 0  9991","REV_AT_EPOCH":"2704","APOAPSIS":"548.177","ELEMENT_SET_NO":"999","SEMIMAJOR_AXIS":"6925.331","PERIOD":"95.592","TIME_SYSTEM":"UTC","INCLINATION":"53.0557","EPOCH":"2021-11-11T12:52:42.226176","RCS_SIZE":"LARGE","CENTER_NAME":"EARTH","MEAN_MOTION_DOT":"0.00000168","DECAY_DATE":null,"OBJECT_NAME":"STARLINK-2215","ECCENTRICITY":"0.00014160","SITE":"AFETR","RA_OF_ASC_NODE":"30.7036","REF_FRAME":"TEME","MEAN_MOTION":"15.06405738","ARG_OF_PERICENTER":"76.2958","MEAN_MOTION_DDOT":"0.0000000000000"},{"TLE_LINE2":"2 48568  53.0530  20.0627 0001421  70.4800 289.6342 15.06395746 27204","PERIAPSIS":"546.243","MEAN_ELEMENT_THEORY":"SGP4","BSTAR":"-0.00020545000000","COUNTRY_CODE":"US","GP_ID":"189528211","TLE_LINE1":"1 48568U 21041R   21315.68126549 -.00003340  00000-0 -20545-3 0  9993","OBJECT_TYPE":"PAYLOAD","CLASSIFICATION_TYPE":"U","FILE":"3212485","MEAN_ANOMALY":"289.6342","NORAD_CAT_ID":"48568","EPHEMERIS_TYPE":"0","OBJECT_ID":"2021-041R","LAUNCH_DATE":"2021-05-15","CENTER_NAME":"EARTH","MEAN_MOTION_DOT":"-0.00003340","SITE":"AFETR","RA_OF_ASC_NODE":"20.0627","MEAN_MOTION":"15.06395746","REF_FRAME":"TEME","ARG_OF_PERICENTER":"70.4800","MEAN_MOTION_DDOT":"0.0000000000000","DECAY_DATE":null,"OBJECT_NAME":"STARLINK-2217","ECCENTRICITY":"0.00014210","PERIOD":"95.592","APOAPSIS":"548.211","REV_AT_EPOCH":"2720","SEMIMAJOR_AXIS":"6925.362","ELEMENT_SET_NO":"999","EPOCH":"2021-11-11T16:21:01.338336","RCS_SIZE":"LARGE","TIME_SYSTEM":"UTC","INCLINATION":"53.0530"},{"MEAN_MOTION_DOT":"0.00000558","CENTER_NAME":"EARTH","DECAY_DATE":null,"ECCENTRICITY":"0.00012080","OBJECT_NAME":"STARLINK-2219","MEAN_MOTION":"15.06406842","REF_FRAME":"TEME","ARG_OF_PERICENTER":"67.8565","MEAN_MOTION_DDOT":"0.0000000000000","RA_OF_ASC_NODE":"20.8519","SITE":"AFETR","APOAPSIS":"548.029","REV_AT_EPOCH":"2718","SEMIMAJOR_AXIS":"6925.328","ELEMENT_SET_NO":"999","PERIOD":"95.592","INCLINATION":"53.0562","TIME_SYSTEM":"UTC","EPOCH":"2021-11-11T12:11:34.004544","RCS_SIZE":"LARGE","COUNTRY_CODE":"US","BSTAR":"0.00005634900000","MEAN_ELEMENT_THEORY":"SGP4","TLE_LINE2":"2 48569  53.0562  20.8519 0001208  67.8565 292.2552 15.06406842 27189","PERIAPSIS":"546.356","OBJECT_TYPE":"PAYLOAD","GP_ID":"189495893","TLE_LINE1":"1 48569U 21041S   21315.50803246  .00000558  00000-0  56349-4 0  9999","OBJECT_ID":"2021-041S","EPHEMERIS_TYPE":"0","FILE":"3212088","NORAD_CAT_ID":"48569","MEAN_ANOMALY":"292.2552","CLASSIFICATION_TYPE":"U","LAUNCH_DATE":"2021-05-15"},{"TIME_SYSTEM":"UTC","INCLINATION":"53.0552","EPOCH":"2021-11-11T16:40:55.737984","RCS_SIZE":"LARGE","APOAPSIS":"548.060","REV_AT_EPOCH":"2706","ELEMENT_SET_NO":"999","SEMIMAJOR_AXIS":"6925.320","PERIOD":"95.592","ECCENTRICITY":"0.00012640","DECAY_DATE":null,"OBJECT_NAME":"STARLINK-2220","RA_OF_ASC_NODE":"29.9952","SITE":"AFETR","REF_FRAME":"TEME","MEAN_MOTION":"15.06409381","MEAN_MOTION_DDOT":"0.0000000000000","ARG_OF_PERICENTER":"74.1186","CENTER_NAME":"EARTH","MEAN_MOTION_DOT":"0.00001373","LAUNCH_DATE":"2021-05-15","EPHEMERIS_TYPE":"0","OBJECT_ID":"2021-041T","CLASSIFICATION_TYPE":"U","FILE":"3212485","MEAN_ANOMALY":"285.9942","NORAD_CAT_ID":"48570","OBJECT_TYPE":"PAYLOAD","GP_ID":"189528678","TLE_LINE1":"1 48570U 21041T   21315.69508956  .00001373  00000-0  11103-3 0  9995","COUNTRY_CODE":"US","TLE_LINE2":"2 48570  53.0552  29.9952 0001264  74.1186 285.9942 15.06409381 27063","PERIAPSIS":"546.309","BSTAR":"0.00011103000000","MEAN_ELEMENT_THEORY":"SGP4"},{"DECAY_DATE":null,"ECCENTRICITY":"0.00012500","OBJECT_NAME":"STARLINK-2221","SITE":"AFETR","RA_OF_ASC_NODE":"30.8632","MEAN_MOTION_DDOT":"0.0000000000000","ARG_OF_PERICENTER":"79.7236","MEAN_MOTION":"15.06409876","REF_FRAME":"TEME","CENTER_NAME":"EARTH","MEAN_MOTION_DOT":"-0.00001307","INCLINATION":"53.0578","TIME_SYSTEM":"UTC","RCS_SIZE":"LARGE","EPOCH":"2021-11-11T12:04:55.579584","SEMIMAJOR_AXIS":"6925.318","ELEMENT_SET_NO":"999","APOAPSIS":"548.049","REV_AT_EPOCH":"2704","PERIOD":"95.592","OBJECT_TYPE":"PAYLOAD","TLE_LINE1":"1 48571U 21041U   21315.50342106 -.00001307  00000-0 -68839-4 0  9997","GP_ID":"189495776","COUNTRY_CODE":"US","PERIAPSIS":"546.318","TLE_LINE2":"2 48571  53.0578  30.8632 0001250  79.7236 280.3893 15.06409876 27041","MEAN_ELEMENT_THEORY":"SGP4","BSTAR":"-0.00006883900000","LAUNCH_DATE":"2021-05-15","EPHEMERIS_TYPE":"0","OBJECT_ID":"2021-041U","CLASSIFICATION_TYPE":"U","NORAD_CAT_ID":"48571","MEAN_ANOMALY":"280.3893","FILE":"3212088"}];
